LEMUR-1                 
1 40044U 14033AL  26188.90863065  .00001114  00000+0  13327-3 0  9990
2 40044  97.7901 338.2567 0048383  11.9074 348.3273 14.85322651648543
LEMUR-2-GREENBERG       
1 42837U 17042N   26189.45031503  .00010957  00000+0  35673-3 0  9993
2 42837  97.3833   9.9878 0007174 288.3377  71.7084 15.32004569491643
LEMUR-2-ANDIS           
1 42838U 17042P   26189.23410210  .00014104  00000+0  40768-3 0  9995
2 42838  97.3683  10.0313 0007080 288.0321  72.0151 15.35722797491682
LEMUR-2-MONSON          
1 42839U 17042Q   26189.30912788  .00009135  00000+0  33057-3 0  9992
2 42839  97.4095   9.7866 0005138 277.0653  83.0002 15.28630051491395
LEMUR-2-FURIAUS         
1 42840U 17042R   26189.45874100  .00011223  00000+0  37717-3 0  9993
2 42840  97.3781   7.9032 0006516 356.1929   3.9261 15.30975722491465
LEMUR-2-PETERG          
1 42841U 17042S   26189.23095802  .00014361  00000+0  42713-3 0  9992
2 42841  97.4000  14.3087 0002895 253.7094 106.3831 15.34841711491661
LEMUR-2-DEMBITZ         
1 42842U 17042T   26188.95551716  .00008779  00000+0  29599-3 0  9995
2 42842  97.3834  10.4419 0005162 306.9410  53.1358 15.30951469491521
LEMUR-2-ZACHARY         
1 42845U 17042W   26189.28440164  .00033943  00000+0  55966-3 0  9997
2 42845  97.3592  21.3972 0002315 284.3315  75.7681 15.52227477492473
LEMUR-2-AMANDA-SVANTE   
1 48269U 21034B   26189.47933423  .00022324  00000+0  64497-3 0  9995
2 48269  97.5750 268.3451 0004257 159.0301 201.1118 15.35658967284328
LEMUR-2-SPECIAL-K       
1 48273U 21034F   26188.76522162  .00175740  00000+0  13220-2 0  9993
2 48273  97.5628 277.2183 0005798 219.6386 140.4453 15.72000030284910
LEMUR-2-EMBRIONOVIS     
1 56970U 23084AQ  26189.34927242  .00009045  00000+0  24325-3 0  9999
2 56970  97.6312 334.3719 0007792 232.9437 127.1096 15.38102724170931
LEMUR-2-DEVERILL-M-T    
1 57391U 23100F   26188.69846859  .00016121  00000+0  39570-3 0  9998
2 57391  99.4460 233.3957 0004797 329.3522  30.7437 15.40821036164403
LEMUR-2-BASS            
1 58259U 23174D   26189.54006848  .00013158  00000+0  29182-3 0  9999
2 58259  97.3840 274.5605 0007967  98.0925 262.1227 15.43834735148652
LEMUR-2-JK0903EM1407    
1 58336U 23174CJ  26189.41757256  .00020260  00000+0  32827-3 0  9999
2 58336  97.3916 280.5024 0004219  55.3925 304.7726 15.52810136149025
LEMUR-2-MJR092620       
1 58340U 23174CN  26189.52826753  .00014763  00000+0  30739-3 0  9996
2 58340  97.3970 279.9615 0005961  52.3346 307.8443 15.45688281148943
LEMUR-2-NIMBUS2000      
1 58899U 24022A   26189.51535626  .00016555  00000+0  40374-3 0  9990
2 58899  97.4097  39.7947 0009426  50.2690 309.9386 15.40914926135557
LEMUR-2-VALHALLA        
1 58900U 24022B   26189.51761269  .00012113  00000+0  30170-3 0  9996
2 58900  97.4095  39.7731 0009908  46.0433 314.1629 15.40344373135553
LEMUR-2-CAEL            
1 58903U 24022E   26189.31438537  .00011966  00000+0  28531-3 0  9999
2 58903  97.4078  40.5408 0007902  33.0363 327.1376 15.41690753135592
LEMUR-2-JOHNNYTRUONG    
1 59146U 24043BA  26189.36477794  .00029538  00000+0  33735-3 0  9991
2 59146  97.5390 342.4070 0004300 112.6150 247.5563 15.62147729131341
LEMUR-2-TOMATOKECHUP    
1 60471U 24149D   26188.75549897  .00007285  00000+0  20696-3 0  9994
2 60471  97.3789 270.8599 0002964 136.0140 224.1341 15.36476705105321
LEMUR-2-STELLA          
1 60533U 24149BT  26189.19257313  .00006723  00000+0  39238-3 0  9999
2 60533  97.6726 271.7449 0001060 111.1796 248.9548 15.12271376103675
LEMUR-2-MARHISYAM       
1 60536U 24149BW  26189.51171934  .00007928  00000+0  46939-3 0  9996
2 60536  97.6873 272.5360 0002783  79.6906 280.4637 15.11690447103703
LEMUR-2-AHMED-ASRAR     
1 60576U 24149DN  26189.06206651  .00007058  00000+0  40129-3 0  9994
2 60576  97.6996 274.2584 0000633 252.4432 107.6729 15.13199165103724
LEMUR-2-LLOYD           
1 60577U 24149DP  26188.46016496  .00006420  00000+0  40278-3 0  9991
2 60577  97.6734 269.6046 0004910  90.2019 269.9772 15.09650711103451
LEMUR-2-SQUIRRELCOMM    
1 60578U 24149DQ  26189.03451372  .00003681  00000+0  24740-3 0  9994
2 60578  97.6707 269.8822 0004746 354.4134   5.7039 15.07397331103542
LEMUR-2-SIERRINI        
1 60579U 24149DR  26189.47320893  .00006107  00000+0  36517-3 0  9997
2 60579  97.6833 272.1651 0006539 108.1566 252.0376 15.11415684103677
LEMUR-2-WILSON          
1 62694U 25009CP  26189.44302668  .00001736  00000+0  16290-3 0  9999
2 62694  97.7023 267.5350 0002512   1.2947 358.8280 14.95263092 80539
LEMUR-2-STAR-FOX        
1 62696U 25009CR  26189.46852532  .00003548  00000+0  26967-3 0  9998
2 62696  97.6924 270.9258 0003180  65.7549 294.4008 15.02789253 80758
LEMUR-2-ARIANNA         
1 62699U 25009CU  26189.46699400  .00003741  00000+0  28415-3 0  9999
2 62699  97.6862 270.6819 0003507  71.2529 288.9076 15.02788966 80758
LEMUR-2-ALISIA          
1 62706U 25009DB  26189.50738369  .00005947  00000+0  44512-3 0  9997
2 62706  97.6958 271.5331 0003544 150.6602 209.4823 15.03106706103365
